KUIPER-00136            
1 65962U 25228R   25300.16799267  .00028757  00000+0  85001-3 0  9999
2 65962  51.8808 244.9139 0005733 181.7005 178.3962 15.34691562  3261
KUIPER-00137            
1 65963U 25228S   25300.10601127  .00027321  00000+0  81733-3 0  9995
2 65963  51.8812 245.2488 0005280 192.7064 167.3789 15.34341150  3251
KUIPER-00138            
1 65964U 25228T   25300.10745007  .00026324  00000+0  79293-3 0  9992
2 65964  51.8803 245.2524 0005915 204.4721 155.5984 15.34141695  3257
KUIPER-00140            
1 65965U 25228U   25300.10814206  .00026984  00000+0  81334-3 0  9992
2 65965  51.8810 245.2599 0005638 205.6295 154.4411 15.34109082  3256
KUIPER-00141            
1 65966U 25228V   25300.10448344  .00029267  00000+0  86986-3 0  9994
2 65966  51.8801 245.2328 0005758 183.6939 176.4005 15.34508078  3251
KUIPER-00146            
1 65967U 25228W   25300.10477731  .00026742  00000+0  79693-3 0  9999
2 65967  51.8811 245.2408 0005725 185.5128 174.5796 15.34472549  3256
KUIPER-00149            
1 65968U 25228X   25300.10318920  .00027049  00000+0  80142-3 0  9996
2 65968  51.8804 245.2249 0005649 181.7875 178.3091 15.34650432  3253
KUIPER-00154            
1 65969U 25228Y   25300.16771483  .00016434  00000+0  49100-3 0  9995
2 65969  51.8802 244.9077 0005867 180.0801 180.0185 15.34711848  3264
